OBJECT_NAME,OBJECT_ID,EPOCH,MEAN_MOTION,ECCENTRICITY,INCLINATION,RA_OF_ASC_NODE,ARG_OF_PERICENTER,MEAN_ANOMALY,EPHEMERIS_TYPE,CLASSIFICATION_TYPE,NORAD_CAT_ID,ELEMENT_SET_NO,REV_AT_EPOCH,BSTAR,MEAN_MOTION_DOT,MEAN_MOTION_DDOT
STARLINK-37656,2026-143A,2026-07-16T15:17:59.489376,15.49201975,.0001448,97.2847,241.5344,85.2588,274.8829,0,U,69649,999,510,.47014E-3,.25574E-3,0
STARLINK-37646,2026-143B,2026-07-16T15:04:50.545920,15.49209952,.0001453,97.2859,241.7024,101.8231,258.3184,0,U,69650,999,511,.37824E-3,.2055E-3,0
STARLINK-37749,2026-143C,2026-07-16T15:14:44.493216,15.49206537,.0000501,97.2829,241.6912,148.0718,212.0564,0,U,69651,999,511,.52188E-4,.2751E-4,0
STARLINK-37819,2026-143D,2026-07-16T13:58:23.853792,15.49202007,.0001,97.2847,241.6117,99.4462,260.6902,0,U,69652,999,510,.52475E-3,.28565E-3,0
STARLINK-37729,2026-143E,2026-07-16T20:00:01.999008,15.80582477,.0001294,97.2830,242.3404,93.5360,262.6453,0,U,69653,999,522,-.1508E-1,-.2459641E-1,0
STARLINK-37838,2026-143F,2026-07-16T14:48:46.512000,15.49204722,.0001296,97.2849,241.7168,89.9568,270.1831,0,U,69654,999,511,.39077E-3,.21231E-3,0
STARLINK-37884,2026-143G,2026-07-16T15:43:26.739840,15.49207886,.0001086,97.2830,241.6651,101.1399,258.9975,0,U,69655,999,511,.45409E-3,.247E-3,0
STARLINK-37876,2026-143H,2026-07-16T21:02:05.977248,15.47479929,.0001757,97.2828,241.9758,140.4202,219.7176,0,U,69656,999,508,-.17697E-1,-.829806E-2,0
STARLINK-37784,2026-143J,2026-07-16T15:32:41.882208,15.49230772,.0001283,97.2830,241.6738,102.2944,257.8451,0,U,69657,999,504,.57133E-3,.31151E-3,0
STARLINK-37851,2026-143K,2026-07-16T14:52:29.850816,15.49204728,.0000931,97.2833,241.7124,94.5719,265.5639,0,U,69658,999,504,.39055E-3,.21219E-3,0
STARLINK-37229,2026-143L,2026-07-16T15:20:34.768320,15.49196052,.0001986,97.2839,241.6861,82.1917,277.9559,0,U,69659,999,505,.65775E-3,.35856E-3,0
STARLINK-37556,2026-143M,2026-07-16T20:00:01.999008,15.36971762,.0001651,97.2982,241.8811,87.6133,270.1755,0,U,69660,999,516,-.9476E-3,-.34148E-3,0
STARLINK-37867,2026-143N,2026-07-15T01:40:34.427424,15.49204020,.00015014,97.2847,240.1489,80.0224,280.1196,0,U,69661,999,480,.28168305E-3,.15267E-3,0
STARLINK-37852,2026-143P,2026-07-16T15:38:36.630240,15.49202814,.0001472,97.2825,241.6687,91.1217,269.0203,0,U,69662,999,504,.52073E-3,.28347E-3,0
STARLINK-37554,2026-143Q,2026-07-16T18:15:32.406336,15.44390690,.000135,97.2842,241.8267,122.2567,237.8813,0,U,69663,999,507,-.24999E-1,-.1046908E-1,0
STARLINK-37830,2026-143R,2026-07-16T20:07:35.836608,15.48196672,.0002288,97.2844,241.8747,97.8950,262.2561,0,U,69664,999,507,-.13343E-1,-.646419E-2,0
STARLINK-37837,2026-143S,2026-07-16T20:00:01.999008,15.36986394,.0000978,97.2836,241.8741,79.7102,262.1225,0,U,69665,999,512,-.79908E-3,-.2884E-3,0
STARLINK-37943,2026-143T,2026-07-16T15:27:30.607200,15.49210662,.0001852,97.2831,241.6804,88.7317,271.4146,0,U,69666,999,504,.32564E-3,.17674E-3,0
STARLINK-37941,2026-143U,2026-07-16T13:36:18.438048,15.49218248,.0000679,97.2835,241.6298,81.9703,278.1626,0,U,69667,999,503,.57295E-3,.31226E-3,0
STARLINK-37930,2026-143V,2026-07-16T15:08:34.200960,15.49226398,.0001061,97.2850,241.6968,108.7909,251.3457,0,U,69668,999,504,.60242E-3,.32853E-3,0
STARLINK-37945,2026-143W,2026-07-16T14:49:58.510848,15.49202518,.0001405,97.2843,241.7151,98.0103,262.1308,0,U,69669,999,504,.46978E-3,.25554E-3,0
STARLINK-37948,2026-143X,2026-07-16T15:58:57.157248,15.49211954,.0000712,97.2838,241.6507,106.5051,253.6278,0,U,69670,999,504,.38849E-3,.21112E-3,0
STARLINK-37949,2026-143Y,2026-07-16T15:23:49.487136,15.49206050,.0001286,97.2837,241.6830,87.9384,272.2014,0,U,69671,999,504,.39075E-3,.21231E-3,0
STARLINK-37946,2026-143Z,2026-07-16T15:03:45.468576,15.49201325,.0001423,97.2842,241.7026,98.3239,261.8174,0,U,69672,999,504,.39048E-3,.21213E-3,0
TJS-26A,2026-144A,2026-07-12T07:10:37.543296,1.00274367,.0004208,6.9538,323.2302,347.4913,194.6526,0,U,69674,999,19,0,-.341E-5,0
CZ-7A R/B,2026-144B,2026-07-16T05:23:20.001120,2.61808490,.7079375,19.4433,314.5344,197.6231,112.4736,0,U,69675,999,59,.12409E-2,.1214932E-1,.38991E-4
STARLINK-38005,2026-145A,2026-07-16T13:47:01.072608,15.75217886,.0001253,97.2836,44.4757,76.4124,283.7281,0,U,69677,999,339,.70262E-3,.106109E-2,0
STARLINK-38009,2026-145B,2026-07-16T13:44:28.663008,15.75218804,.0001482,97.2842,44.4790,78.4105,281.7326,0,U,69678,999,339,.71692E-3,.108304E-2,0
STARLINK-37998,2026-145C,2026-07-16T13:40:54.950016,15.75210195,.0001233,97.2840,44.4820,47.5735,312.5635,0,U,69679,999,339,.4729E-3,.71057E-3,0
STARLINK-37994,2026-145D,2026-07-16T13:42:57.105792,15.75204722,.000055,97.2837,44.4797,137.9165,222.2142,0,U,69680,999,339,.80794E-3,.122195E-2,0
