STARLINK-37656          
1 69649U 26143A   26197.63749409  .00025574  00000+0  47014-3 0  9998
2 69649  97.2847 241.5344 0001448  85.2588 274.8829 15.49201975  5108
STARLINK-37646          
1 69650U 26143B   26197.62836280  .00020550  00000+0  37824-3 0  9990
2 69650  97.2859 241.7024 0001453 101.8231 258.3184 15.49209952  5111
STARLINK-37749          
1 69651U 26143C   26197.63523719  .00002751  00000+0  52188-4 0  9996
2 69651  97.2829 241.6912 0000501 148.0718 212.0564 15.49206537  5115
STARLINK-37819          
1 69652U 26143D   26197.58222053  .00028565  00000+0  52475-3 0  9997
2 69652  97.2847 241.6117 0001000  99.4462 260.6902 15.49202007  5105
STARLINK-37729          
1 69653U 26143E   26197.83335647 -.02459641  00000+0 -15080-1 0  9996
2 69653  97.2830 242.3404 0001294  93.5360 262.6453 15.80582477  5225
STARLINK-37838          
1 69654U 26143F   26197.61720500  .00021231  00000+0  39077-3 0  9999
2 69654  97.2849 241.7168 0001296  89.9568 270.1831 15.49204722  5118
STARLINK-37884          
1 69655U 26143G   26197.65517060  .00024700  00000+0  45409-3 0  9999
2 69655  97.2830 241.6651 0001086 101.1399 258.9975 15.49207886  5118
STARLINK-37876          
1 69656U 26143H   26197.87645807 -.00829806  00000+0 -17697-1 0  9993
2 69656  97.2828 241.9758 0001757 140.4202 219.7176 15.47479929  5082
STARLINK-37784          
1 69657U 26143J   26197.64770697  .00031151  00000+0  57133-3 0  9992
2 69657  97.2830 241.6738 0001283 102.2944 257.8451 15.49230772  5042
STARLINK-37851          
1 69658U 26143K   26197.61978994  .00021219  00000+0  39055-3 0  9997
2 69658  97.2833 241.7124 0000931  94.5719 265.5639 15.49204728  5044
STARLINK-37229          
1 69659U 26143L   26197.63929130  .00035856  00000+0  65775-3 0  9998
2 69659  97.2839 241.6861 0001986  82.1917 277.9559 15.49196052  5051
STARLINK-37556          
1 69660U 26143M   26197.83335647 -.00034148  00000+0 -94760-3 0  9997
2 69660  97.2982 241.8811 0001651  87.6133 270.1755 15.36971762  5168
STARLINK-37867          
1 69661U 26143N   26196.06984291  .00015267  00000+0  28168-3 0  9995
2 69661  97.2847 240.1489 0001501  80.0224 280.1196 15.49204020  4804
STARLINK-37852          
1 69662U 26143P   26197.65181285  .00028347  00000+0  52073-3 0  9999
2 69662  97.2825 241.6687 0001472  91.1217 269.0203 15.49202814  5040
STARLINK-37554          
1 69663U 26143Q   26197.76079174 -.01046908  00000+0 -24999-1 0  9995
2 69663  97.2842 241.8267 0001350 122.2567 237.8813 15.44390690  5073
STARLINK-37830          
1 69664U 26143R   26197.83860922 -.00646419  00000+0 -13343-1 0  9996
2 69664  97.2844 241.8747 0002288  97.8950 262.2561 15.48196672  5073
STARLINK-37837          
1 69665U 26143S   26197.83335647 -.00028840  00000+0 -79908-3 0  9991
2 69665  97.2836 241.8741 0000978  79.7102 262.1225 15.36986394  5128
STARLINK-37943          
1 69666U 26143T   26197.64410425  .00017674  00000+0  32564-3 0  9997
2 69666  97.2831 241.6804 0001852  88.7317 271.4146 15.49210662  5040
STARLINK-37941          
1 69667U 26143U   26197.56688007  .00031226  00000+0  57295-3 0  9999
2 69667  97.2835 241.6298 0000679  81.9703 278.1626 15.49218248  5036
STARLINK-37930          
1 69668U 26143V   26197.63095140  .00032853  00000+0  60242-3 0  9991
2 69668  97.2850 241.6968 0001061 108.7909 251.3457 15.49226398  5041
STARLINK-37945          
1 69669U 26143W   26197.61803832  .00025554  00000+0  46978-3 0  9995
2 69669  97.2843 241.7151 0001405  98.0103 262.1308 15.49202518  5041
STARLINK-37948          
1 69670U 26143X   26197.66593932  .00021112  00000+0  38849-3 0  9993
2 69670  97.2838 241.6507 0000712 106.5051 253.6278 15.49211954  5043
STARLINK-37949          
1 69671U 26143Y   26197.64154499  .00021231  00000+0  39075-3 0  9997
2 69671  97.2837 241.6830 0001286  87.9384 272.2014 15.49206050  5046
STARLINK-37946          
1 69672U 26143Z   26197.62760959  .00021213  00000+0  39048-3 0  9990
2 69672  97.2842 241.7026 0001423  98.3239 261.8174 15.49201325  5040
TJS-26A                 
1 69674U 26144A   26193.29904564 -.00000341  00000+0  00000+0 0  9996
2 69674   6.9538 323.2302 0004208 347.4913 194.6526  1.00274367   198
CZ-7A R/B               
1 69675U 26144B   26197.22453705  .01214932  38991-4  12409-2 0  9997
2 69675  19.4433 314.5344 7079375 197.6231 112.4736  2.61808490   596
STARLINK-38005          
1 69677U 26145A   26197.57431797  .00106109  00000+0  70262-3 0  9997
2 69677  97.2836  44.4757 0001253  76.4124 283.7281 15.75217886  3394
STARLINK-38009          
1 69678U 26145B   26197.57255397  .00108304  00000+0  71692-3 0  9995
2 69678  97.2842  44.4790 0001482  78.4105 281.7326 15.75218804  3393
STARLINK-37998          
1 69679U 26145C   26197.57008044  .00071057  00000+0  47290-3 0  9992
2 69679  97.2840  44.4820 0001233  47.5735 312.5635 15.75210195  3397
STARLINK-37994          
1 69680U 26145D   26197.57149428  .00122195  00000+0  80794-3 0  9992
2 69680  97.2837  44.4797 0000550 137.9165 222.2142 15.75204722  3399
